[{"OBJECT_NAME":"FLOCK 4G-21","OBJECT_ID":"2025-009AU","EPOCH":"2026-03-09T04:40:37.351200","MEAN_MOTION":15.28381075,"ECCENTRICITY":4.655e-5,"INCLINATION":97.4032,"RA_OF_ASC_NODE":151.1274,"ARG_OF_PERICENTER":329.5782,"MEAN_ANOMALY":30.5431,"EPHEMERIS_TYPE":0,"CLASSIFICATION_TYPE":"U","NORAD_CAT_ID":62651,"ELEMENT_SET_NO":999,"REV_AT_EPOCH":6367,"BSTAR":0.00049618643,"MEAN_MOTION_DOT":0.00013648,"MEAN_MOTION_DDOT":0},{"OBJECT_NAME":"STARLINK-34070","OBJECT_ID":"2025-095Z","EPOCH":"2026-03-09T08:00:38.871072","MEAN_MOTION":15.27579271,"ECCENTRICITY":0.00010315,"INCLINATION":42.9995,"RA_OF_ASC_NODE":178.1983,"ARG_OF_PERICENTER":242.774,"MEAN_ANOMALY":117.3007,"EPHEMERIS_TYPE":0,"CLASSIFICATION_TYPE":"U","NORAD_CAT_ID":63913,"ELEMENT_SET_NO":999,"REV_AT_EPOCH":4772,"BSTAR":0.0010984871,"MEAN_MOTION_DOT":0.00030089,"MEAN_MOTION_DDOT":0}]
